[Satellite]
VERSION=1.1
NAME=COSMOS 2433 (720)
NICKNAME=COSMOS 2433 (720)
TLE1=1 32275U 07052A   19316.64915300 -.00000049  00000-0  10000-3 0  9999
TLE2=2 32275  65.9082  36.1811 0004090 228.1876 107.6842  2.13104432 93761
STATUS=0
